# PACE at 420 km
1 99999U          20001.00000000  .00000000  00000-0  00000-0 0 00001
2 99999 097.1186 295.1425 0009314 325.0339 258.9686 15.47686467000018
